[Satellite]
VERSION=1.1
NAME=MOLNIYA 2-14
NICKNAME=MOLNIYA 2-14
TLE1=1 08195U 75081A   19316.03620186 -.00000980  00000-0 -12270-2 0  9993
TLE2=2 08195  62.9051 311.6696 7390830 291.4393   8.5196  2.02115254323785
STATUS=0
